{"type": "FeatureCollection", "features": [ {"type": "Feature", "properties": {"norad_id": 30914, "name": "FENGYUN 1C DEB", "group": "fengyun-1c-debris", "lat": -16.364110034201524, "lon": 48.34148614056193, "alt_km": 1588.272613597227, "timestamp": "2025-12-13T10:41:26.045691+00:00", "meta": {"OBJECT_NAME": "FENGYUN 1C DEB", "OBJECT_ID": "1999-025AZC", "EPOCH": "2025-12-12T22:39:59.116608", "MEAN_MOTION": 13.08837049, "ECCENTRICITY": 0.05165148, "INCLINATION": 99.9823, "RA_OF_ASC_NODE": 230.8365, "ARG_OF_PERICENTER": 353.8635, "MEAN_ANOMALY": 5.6308, "EPHEMERIS_TYPE": 0, "CLASSIFICATION_TYPE": "U", "NORAD_CAT_ID": 30914, "ELEMENT_SET_NO": 999, "REV_AT_EPOCH": 59078, "BSTAR": 0.004351417, "MEAN_MOTION_DOT": 2.822e-05, "MEAN_MOTION_DDOT": 0}, "tle": {"line1": "1 30914U 99025AZC 25346.94443422  .00002822  00000+0  43514-2 0  9996", "line2": "2 30914  99.9823 230.8365 0516514 353.8635   5.6308 13.08837049590785"}}, "geometry": {"type": "Point", "coordinates": [48.34148614056193, -16.364110034201524]}}, {"type": "Feature", "properties": {"norad_id": 30915, "name": "FENGYUN 1C DEB", "group": "fengyun-1c-debris", "lat": -30.703014014452787, "lon": -121.7320763813476, "alt_km": 786.8156869021359, "timestamp": "2025-12-13T10:41:26.045702+00:00", "meta": {"OBJECT_NAME": "FENGYUN 1C DEB", "OBJECT_ID": "1999-025AZD", "EPOCH": "2025-12-11T22:19:06.926592", "MEAN_MOTION": 14.25031118, "ECCENTRICITY": 0.0053816, "INCLINATION": 98.9416, "RA_OF_ASC_NODE": 62.089, "ARG_OF_PERICENTER": 170.3721, "MEAN_ANOMALY": 189.8502, "EPHEMERIS_TYPE": 0, "CLASSIFICATION_TYPE": "U", "NORAD_CAT_ID": 30915, "ELEMENT_SET_NO": 999, "REV_AT_EPOCH": 96501, "BSTAR": 0.0025846, "MEAN_MOTION_DOT": 6.104e-05, "MEAN_MOTION_DDOT": 0}, "tle": {"line1": "1 30915U 99025AZD 25345.92994128  .00006104  00000+0  25846-2 0  9993", "line2": "2 30915  98.9416  62.0890 0053816 170.3721 189.8502 14.25031118965016"}}, "geometry": {"type": "Point", "coordinates": [-121.7320763813476, -30.703014014452787]}}, {"type": "Feature", "properties": {"norad_id": 30916, "name": "FENGYUN 1C DEB", "group": "fengyun-1c-debris", "lat": -33.96775554455088, "lon": -138.3426932546113, "alt_km": 835.7311283242188, "timestamp": "2025-12-13T10:41:26.045712+00:00", "meta": {"OBJECT_NAME": "FENGYUN 1C DEB", "OBJECT_ID": "1999-025AZE", "EPOCH": "2025-12-12T15:38:58.221600", "MEAN_MOTION": 14.08795656, "ECCENTRICITY": 0.00626063, "INCLINATION": 99.002, "RA_OF_ASC_NODE": 46.9958, "ARG_OF_PERICENTER": 258.4803, "MEAN_ANOMALY": 254.8183, "EPHEMERIS_TYPE": 0, "CLASSIFICATION_TYPE": "U", "NORAD_CAT_ID": 30916, "ELEMENT_SET_NO": 999, "REV_AT_EPOCH": 95842, "BSTAR": 0.0017460829, "MEAN_MOTION_DOT": 3.023e-05, "MEAN_MOTION_DDOT": 0}, "tle": {"line1": "1 30916U 99025AZE 25346.65206275  .00003023  00000+0  17461-2 0  9995", "line2": "2 30916  99.0020  46.9958 0062606 258.4803 254.8183 14.08795656958422"}}, "geometry": {"type": "Point", "coordinates": [-138.3426932546113, -33.96775554455088]}}, {"type": "Feature", "properties": {"norad_id": 30918, "name": "FENGYUN 1C DEB", "group": "fengyun-1c-debris", "lat": -81.5533087634096, "lon": -165.8822936238052, "alt_km": 1006.9872606417393, "timestamp": "2025-12-13T10:41:26.045722+00:00", "meta": {"OBJECT_NAME": "FENGYUN 1C DEB", "OBJECT_ID": "1999-025AZG", "EPOCH": "2025-12-12T18:40:20.629920", "MEAN_MOTION": 13.96821451, "ECCENTRICITY": 0.0158123, "INCLINATION": 98.4156, "RA_OF_ASC_NODE": 98.9843, "ARG_OF_PERICENTER": 125.2641, "MEAN_ANOMALY": 28.7284, "EPHEMERIS_TYPE": 0, "CLASSIFICATION_TYPE": "U", "NORAD_CAT_ID": 30918, "ELEMENT_SET_NO": 999, "REV_AT_EPOCH": 95053, "BSTAR": 0.0021902179, "MEAN_MOTION_DOT": 3.347e-05, "MEAN_MOTION_DDOT": 0}, "tle": {"line1": "1 30918U 99025AZG 25346.77801655  .00003347  00000+0  21902-2 0  9997", "line2": "2 30918  98.4156  98.9843 0158123 125.2641  28.7284 13.96821451950531"}}, "geometry": {"type": "Point", "coordinates": [-165.8822936238052, -81.5533087634096]}}, {"type": "Feature", "properties": {"norad_id": 30920, "name": "FENGYUN 1C DEB", "group": "fengyun-1c-debris", "lat": -43.5416053897276, "lon": -59.841886650664, "alt_km": 891.2122348776411, "timestamp": "2025-12-13T10:41:26.045733+00:00", "meta": {"OBJECT_NAME": "FENGYUN 1C DEB", "OBJECT_ID": "1999-025AZJ", "EPOCH": "2025-12-12T08:13:11.474688", "MEAN_MOTION": 14.16622967, "ECCENTRICITY": 0.01097392, "INCLINATION": 98.9184, "RA_OF_ASC_NODE": 127.635, "ARG_OF_PERICENTER": 99.5425, "MEAN_ANOMALY": 261.817, "EPHEMERIS_TYPE": 0, "CLASSIFICATION_TYPE": "U", "NORAD_CAT_ID": 30920, "ELEMENT_SET_NO": 999, "REV_AT_EPOCH": 95088, "BSTAR": 0.0054990648, "MEAN_MOTION_DOT": 0.00011612, "MEAN_MOTION_DDOT": 0}, "tle": {"line1": "1 30920U 99025AZJ 25346.34249392  .00011612  00000+0  54991-2 0  9995", "line2": "2 30920  98.9184 127.6350 0109739  99.5425 261.8170 14.16622967950881"}}, "geometry": {"type": "Point", "coordinates": [-59.841886650664, -43.5416053897276]}}, {"type": "Feature", "properties": {"norad_id": 30921, "name": "FENGYUN 1C DEB", "group": "fengyun-1c-debris", "lat": 28.625903483248006, "lon": -100.18767749598831, "alt_km": 786.3394261617159, "timestamp": "2025-12-13T10:41:26.045744+00:00", "meta": {"OBJECT_NAME": "FENGYUN 1C DEB", "OBJECT_ID": "1999-025AZK", "EPOCH": "2025-12-12T19:29:58.296192", "MEAN_MOTION": 14.32736938, "ECCENTRICITY": 0.00168258, "INCLINATION": 98.8426, "RA_OF_ASC_NODE": 74.2927, "ARG_OF_PERICENTER": 37.4548, "MEAN_ANOMALY": 90.3985, "EPHEMERIS_TYPE": 0, "CLASSIFICATION_TYPE": "U", "NORAD_CAT_ID": 30921, "ELEMENT_SET_NO": 999, "REV_AT_EPOCH": 96825, "BSTAR": 0.002570691, "MEAN_MOTION_DOT": 6.97e-05, "MEAN_MOTION_DDOT": 0}, "tle": {"line1": "1 30921U 99025AZK 25346.81248028  .00006970  00000+0  25707-2 0  9997", "line2": "2 30921  98.8426  74.2927 0016825  37.4548  90.3985 14.32736938968258"}}, "geometry": {"type": "Point", "coordinates": [-100.18767749598831, 28.625903483248006]}}, {"type": "Feature", "properties": {"norad_id": 30922, "name": "FENGYUN 1C DEB", "group": "fengyun-1c-debris", "lat": 56.43579079068606, "lon": -9.977607749852979, "alt_km": 818.0386763355345, "timestamp": "2025-12-13T10:41:26.045754+00:00", "meta": {"OBJECT_NAME": "FENGYUN 1C DEB", "OBJECT_ID": "1999-025AZL", "EPOCH": "2025-12-12T07:24:15.691680", "MEAN_MOTION": 14.17457854, "ECCENTRICITY": 0.00145904, "INCLINATION": 98.6407, "RA_OF_ASC_NODE": 2.1657, "ARG_OF_PERICENTER": 55.058, "MEAN_ANOMALY": 324.1261, "EPHEMERIS_TYPE": 0, "CLASSIFICATION_TYPE": "U", "NORAD_CAT_ID": 30922, "ELEMENT_SET_NO": 999, "REV_AT_EPOCH": 96558, "BSTAR": 0.00095068978, "MEAN_MOTION_DOT": 1.887e-05, "MEAN_MOTION_DDOT": 0}, "tle": {"line1": "1 30922U 99025AZL 25346.30851495  .00001887  00000+0  95069-3 0  9991", "line2": "2 30922  98.6407   2.1657 0014590  55.0580 324.1261 14.17457854965583"}}, "geometry": {"type": "Point", "coordinates": [-9.977607749852979, 56.43579079068606]}}, {"type": "Feature", "properties": {"norad_id": 30925, "name": "FENGYUN 1C DEB", "group": "fengyun-1c-debris", "lat": -67.26300683637868, "lon": -82.6528388152527, "alt_km": 732.3835163448048, "timestamp": "2025-12-13T10:41:26.045764+00:00", "meta": {"OBJECT_NAME": "FENGYUN 1C DEB", "OBJECT_ID": "1999-025AZP", "EPOCH": "2025-12-11T07:45:48.086208", "MEAN_MOTION": 14.43091486, "ECCENTRICITY": 0.00330821, "INCLINATION": 98.8812, "RA_OF_ASC_NODE": 117.0445, "ARG_OF_PERICENTER": 241.4994, "MEAN_ANOMALY": 149.4928, "EPHEMERIS_TYPE": 0, "CLASSIFICATION_TYPE": "U", "NORAD_CAT_ID": 30925, "ELEMENT_SET_NO": 999, "REV_AT_EPOCH": 97052, "BSTAR": 0.0050847647, "MEAN_MOTION_DOT": 0.00017166, "MEAN_MOTION_DDOT": 0}, "tle": {"line1": "1 30925U 99025AZP 25345.32347322  .00017166  00000+0  50848-2 0  9996", "line2": "2 30925  98.8812 117.0445 0033082 241.4994 149.4928 14.43091486970528"}}, "geometry": {"type": "Point", "coordinates": [-82.6528388152527, -67.26300683637868]}}, {"type": "Feature", "properties": {"norad_id": 30926, "name": "FENGYUN 1C DEB", "group": "fengyun-1c-debris", "lat": 24.269388800961238, "lon": 112.27000379813762, "alt_km": 681.3164365824396, "timestamp": "2025-12-13T10:41:26.045775+00:00", "meta": {"OBJECT_NAME": "FENGYUN 1C DEB", "OBJECT_ID": "1999-025AZQ", "EPOCH": "2025-12-12T06:35:38.168448", "MEAN_MOTION": 14.89343424, "ECCENTRICITY": 0.01658632, "INCLINATION": 98.802, "RA_OF_ASC_NODE": 286.9622, "ARG_OF_PERICENTER": 23.2936, "MEAN_ANOMALY": 337.5683, "EPHEMERIS_TYPE": 0, "CLASSIFICATION_TYPE": "U", "NORAD_CAT_ID": 30926, "ELEMENT_SET_NO": 999, "REV_AT_EPOCH": 760, "BSTAR": 0.0008018448, "MEAN_MOTION_DOT": 9.789e-05, "MEAN_MOTION_DDOT": 0}, "tle": {"line1": "1 30926U 99025AZQ 25346.27474732  .00009789  00000+0  80184-3 0  9997", "line2": "2 30926  98.8020 286.9622 0165863  23.2936 337.5683 14.89343424  7608"}}, "geometry": {"type": "Point", "coordinates": [112.27000379813762, 24.269388800961238]}}, {"type": "Feature", "properties": {"norad_id": 30927, "name": "FENGYUN 1C DEB", "group": "fengyun-1c-debris", "lat": 31.41726660725816, "lon": -126.4011431983436, "alt_km": 918.4158498973602, "timestamp": "2025-12-13T10:41:26.045784+00:00", "meta": {"OBJECT_NAME": "FENGYUN 1C DEB", "OBJECT_ID": "1999-025AZR", "EPOCH": "2025-12-12T15:14:48.459840", "MEAN_MOTION": 14.08978851, "ECCENTRICITY": 0.0098355, "INCLINATION": 99.1821, "RA_OF_ASC_NODE": 47.1038, "ARG_OF_PERICENTER": 6.2521, "MEAN_ANOMALY": 353.9851, "EPHEMERIS_TYPE": 0, "CLASSIFICATION_TYPE": "U", "NORAD_CAT_ID": 30927, "ELEMENT_SET_NO": 999, "REV_AT_EPOCH": 95682, "BSTAR": 0.0022807809, "MEAN_MOTION_DOT": 4.084e-05, "MEAN_MOTION_DDOT": 0}, "tle": {"line1": "1 30927U 99025AZR 25346.63528310  .00004084  00000+0  22808-2 0  9991", "line2": "2 30927  99.1821  47.1038 0098355   6.2521 353.9851 14.08978851956827"}}, "geometry": {"type": "Point", "coordinates": [-126.4011431983436, 31.41726660725816]}}]}